GLOBALSTAR M024 [-]     
1 25883U 99043A   23319.77561476 -.00000009  00000+0  19664-2 0  9999
2 25883  52.0022 247.9588 0000579 218.5019 153.0966 11.10158514 50517
GLOBALSTAR M027 [-]     
1 25884U 99043B   23320.12467161 -.00000077  00000+0 -48977-3 0  9993
2 25884  52.0227 308.7539 0021217 135.4950 224.7552 11.04365343 77306
GLOBALSTAR M054 [-]     
1 25885U 99043C   23319.86485373 -.00000083  00000+0 -29007-3 0  9998
2 25885  52.0115 173.8464 0003502 250.6353 244.6191 11.39202017 53024
GLOBALSTAR M053 [-]     
1 25886U 99043D   23319.69508159 -.00000079  00000+0 -29521-3 0  9994
2 25886  51.9971  89.1974 0003915 165.5795 207.1060 11.27652322 54070
GLOBALSTAR M058 [-]     
1 25907U 99049A   23320.11290334 -.00000031  00000+0  72324-3 0  9992
2 25907  51.9933 215.4143 0001581 225.9635 134.1069 11.93169499 83627
GLOBALSTAR M050 [-]     
1 25908U 99049B   23319.81309640 -.00000085  00000+0  40128-4 0  9996
2 25908  51.9993 267.1735 0009031 321.6996  53.4653 12.07423362 78205
GLOBALSTAR M033 [-]     
1 25909U 99049C   23319.99815729 -.00000108  00000+0 -15358-3 0  9999
2 25909  51.9897 178.5035 0011793 157.7749 202.3611 12.20259055 97750
GLOBALSTAR M055 [-]     
1 25910U 99049D   23319.90072565 -.00000029  00000+0  55719-3 0  9991
2 25910  52.0012 217.7144 0007573  15.1286 344.9791 12.29390747 97254
